{
  "norad_id": 65514,
  "name": "STARLINK-35026",
  "history": [
    {
      "epoch": "2026-03-28T16:29:55.567680Z",
      "apogee_km": 476.0619550836409,
      "perigee_km": 474.2820136742175,
      "latitude_deg": 1.7095286146687672e-05,
      "longitude_deg": 109.52636453650688,
      "height_km": 475.9838150319339,
      "semi_major_axis_km": 6853.308984378929,
      "eccentricity": 0.00012986,
      "inclination_deg": 53.1578,
      "raan_deg": 183.1122,
      "arg_perigee_deg": 84.4559,
      "mean_anomaly_deg": 275.659,
      "mean_motion_rev_day": 15.3021443
    }
  ]
}